NAVSTAR 69 (USA 248)    
1 39533U 14008A   26051.01522262  .00000033  00000+0  00000+0 0  9994
2 39533  53.6372 154.1005 0081863 227.8391 131.4790  2.00552247 87338
NAVSTAR 70 (USA 251)    
1 39741U 14026A   26051.29413374 -.00000068  00000+0  00000+0 0  9997
2 39741  56.5524 336.0714 0039987 323.7713  35.9889  2.00569431 86195
NAVSTAR 71 (USA 256)    
1 40105U 14045A   26051.38069646  .00000021  00000+0  00000+0 0  9991
2 40105  55.2725  93.1181 0031723 120.6930 239.6992  2.00550640 83731
NAVSTAR 72 (USA 258)    
1 40294U 14068A   26051.75838251 -.00000036  00000+0  00000+0 0  9999
2 40294  56.9111  35.4407 0062324  68.0617 292.6038  2.00569010 82870
NAVSTAR 73 (USA 260)    
1 40534U 15013A   26051.88927599  .00000065  00000+0  00000+0 0  9996
2 40534  53.1887 208.9856 0108668  39.6984 321.0538  2.00558160 79494
NAVSTAR 74 (USA 262)    
1 40730U 15033A   26051.55140374  .00000028  00000+0  00000+0 0  9997
2 40730  54.0735 271.8942 0114198  28.7084 331.9684  2.00562072 77659
NAVSTAR 75 (USA 265)    
1 41019U 15062A   26052.10894361 -.00000037  00000+0  00000+0 0  9995
2 41019  56.8848  35.2835 0111493 231.3841 127.6177  2.00566987 75504
NAVSTAR 76 (USA 266)    
1 41328U 16007A   26051.19665917  .00000023  00000+0  00000+0 0  9993
2 41328  55.4471  94.0976 0095119 245.6519 113.4308  2.00557265 73493
NAVSTAR 77 (USA 289)    
1 43873U 18109A   26051.47592510  .00000022  00000+0  00000+0 0  9993
2 43873  55.6064  96.7911 0037949 197.9521 256.3182  2.00556095 52738
NAVSTAR 78 (USA 293)    
1 44506U 19056A   26052.22047089 -.00000071  00000+0  00000+0 0  9994
2 44506  55.6903 335.7549 0057953 198.3869 333.3280  2.00567829 47741
NAVSTAR 79 (USA 304)    
1 45854U 20041A   26051.28337762 -.00000039  00000+0  00000+0 0  9996
2 45854  56.5974  33.4800 0061266 205.0655 312.5058  2.00560623 41694
NAVSTAR 80 (USA 309)    
1 46826U 20078A   26051.32133844  .00000065  00000+0  00000+0 0  9994
2 46826  54.0047 215.5157 0067642 203.9470 313.9325  2.00565520 39164
NAVSTAR 81 (USA 319)    
1 48859U 21054A   26050.86045568 -.00000070  00000+0  00000+0 0  9997
2 48859  55.2271 337.1793 0024029 232.3791 136.5879  2.00576094 34408
NAVSTAR 82 (USA 343)    
1 55268U 23009A   26051.28100478  .00000034  00000+0  00000+0 0  9999
2 55268  55.1088 153.1145 0004234 338.6378  14.2976  2.00550057 22890
NAVSTAR 83 (USA 440)    
1 62339U 24242A   26050.43515791 -.00000071  00000+0  00000+0 0  9992
2 62339  54.8976 338.9584 0015295 354.2872 189.0355  2.00569238  8898
NAVSTAR 84 (USA 545)    
1 64202U 25116A   26047.18431050 -.00000036  00000+0  00000+0 0  9998
2 64202  55.1552  36.0004 0007975 323.0614 219.5083  2.00554245  5447
NAVSTAR 85 (USA 581)    
1 67588U 26017A   26048.53936881  .00000028  00000+0  00000+0 0  9991
2 67588  55.0081  93.5564 0000946  45.2724 314.8210  2.00561228429213
