[{"OBJECT_NAME":"GPS BIIF-5  (PRN 30)","OBJECT_ID":"2014-008A","EPOCH":"2026-02-20T00:21:55.234368","MEAN_MOTION":2.00552247,"ECCENTRICITY":0.00818637,"INCLINATION":53.6372,"RA_OF_ASC_NODE":154.1005,"ARG_OF_PERICENTER":227.8391,"MEAN_ANOMALY":131.479,"EPHEMERIS_TYPE":0,"CLASSIFICATION_TYPE":"U","NORAD_CAT_ID":39533,"ELEMENT_SET_NO":999,"REV_AT_EPOCH":8733,"BSTAR":0,"MEAN_MOTION_DOT":3.3e-07,"MEAN_MOTION_DDOT":0},{"OBJECT_NAME":"GPS BIIF-6  (PRN 06)","OBJECT_ID":"2014-026A","EPOCH":"2026-02-20T07:03:33.155136","MEAN_MOTION":2.00569431,"ECCENTRICITY":0.0039987,"INCLINATION":56.5524,"RA_OF_ASC_NODE":336.0714,"ARG_OF_PERICENTER":323.7713,"MEAN_ANOMALY":35.9889,"EPHEMERIS_TYPE":0,"CLASSIFICATION_TYPE":"U","NORAD_CAT_ID":39741,"ELEMENT_SET_NO":999,"REV_AT_EPOCH":8619,"BSTAR":0,"MEAN_MOTION_DOT":-6.8e-07,"MEAN_MOTION_DDOT":0},{"OBJECT_NAME":"GPS BIIF-7  (PRN 09)","OBJECT_ID":"2014-045A","EPOCH":"2026-02-20T09:08:12.174144","MEAN_MOTION":2.0055064,"ECCENTRICITY":0.00317232,"INCLINATION":55.2725,"RA_OF_ASC_NODE":93.1181,"ARG_OF_PERICENTER":120.693,"MEAN_ANOMALY":239.6992,"EPHEMERIS_TYPE":0,"CLASSIFICATION_TYPE":"U","NORAD_CAT_ID":40105,"ELEMENT_SET_NO":999,"REV_AT_EPOCH":8373,"BSTAR":0,"MEAN_MOTION_DOT":2.1e-07,"MEAN_MOTION_DDOT":0},{"OBJECT_NAME":"GPS BIIF-8  (PRN 03)","OBJECT_ID":"2014-068A","EPOCH":"2026-02-20T18:12:04.248864","MEAN_MOTION":2.0056901,"ECCENTRICITY":0.0062324,"INCLINATION":56.9111,"RA_OF_ASC_NODE":35.4407,"ARG_OF_PERICENTER":68.0617,"MEAN_ANOMALY":292.6038,"EPHEMERIS_TYPE":0,"CLASSIFICATION_TYPE":"U","NORAD_CAT_ID":40294,"ELEMENT_SET_NO":999,"REV_AT_EPOCH":8287,"BSTAR":0,"MEAN_MOTION_DOT":-3.6e-07,"MEAN_MOTION_DDOT":0},{"OBJECT_NAME":"GPS BIIF-9  (PRN 26)","OBJECT_ID":"2015-013A","EPOCH":"2026-02-20T21:20:33.445536","MEAN_MOTION":2.0055816,"ECCENTRICITY":0.01086687,"INCLINATION":53.1887,"RA_OF_ASC_NODE":208.9856,"ARG_OF_PERICENTER":39.6984,"MEAN_ANOMALY":321.0538,"EPHEMERIS_TYPE":0,"CLASSIFICATION_TYPE":"U","NORAD_CAT_ID":40534,"ELEMENT_SET_NO":999,"REV_AT_EPOCH":7949,"BSTAR":0,"MEAN_MOTION_DOT":6.5e-07,"MEAN_MOTION_DDOT":0},{"OBJECT_NAME":"GPS BIIF-10 (PRN 08)","OBJECT_ID":"2015-033A","EPOCH":"2026-02-20T13:14:01.283136","MEAN_MOTION":2.00562072,"ECCENTRICITY":0.01141989,"INCLINATION":54.0735,"RA_OF_ASC_NODE":271.8942,"ARG_OF_PERICENTER":28.7084,"MEAN_ANOMALY":331.9684,"EPHEMERIS_TYPE":0,"CLASSIFICATION_TYPE":"U","NORAD_CAT_ID":40730,"ELEMENT_SET_NO":999,"REV_AT_EPOCH":7765,"BSTAR":0,"MEAN_MOTION_DOT":2.8e-07,"MEAN_MOTION_DDOT":0},{"OBJECT_NAME":"GPS BIIF-11 (PRN 10)","OBJECT_ID":"2015-062A","EPOCH":"2026-02-21T02:36:52.727904","MEAN_MOTION":2.00566987,"ECCENTRICITY":0.01114933,"INCLINATION":56.8848,"RA_OF_ASC_NODE":35.2835,"ARG_OF_PERICENTER":231.3841,"MEAN_ANOMALY":127.6177,"EPHEMERIS_TYPE":0,"CLASSIFICATION_TYPE":"U","NORAD_CAT_ID":41019,"ELEMENT_SET_NO":999,"REV_AT_EPOCH":7550,"BSTAR":0,"MEAN_MOTION_DOT":-3.7e-07,"MEAN_MOTION_DDOT":0},{"OBJECT_NAME":"GPS BIIF-12 (PRN 32)","OBJECT_ID":"2016-007A","EPOCH":"2026-02-20T04:43:11.352288","MEAN_MOTION":2.00557265,"ECCENTRICITY":0.0095119,"INCLINATION":55.4471,"RA_OF_ASC_NODE":94.0976,"ARG_OF_PERICENTER":245.6519,"MEAN_ANOMALY":113.4308,"EPHEMERIS_TYPE":0,"CLASSIFICATION_TYPE":"U","NORAD_CAT_ID":41328,"ELEMENT_SET_NO":999,"REV_AT_EPOCH":7349,"BSTAR":0,"MEAN_MOTION_DOT":2.3e-07,"MEAN_MOTION_DDOT":0},{"OBJECT_NAME":"GPS BIII-1  (PRN 04)","OBJECT_ID":"2018-109A","EPOCH":"2026-02-20T11:25:19.928640","MEAN_MOTION":2.00556095,"ECCENTRICITY":0.00379498,"INCLINATION":55.6064,"RA_OF_ASC_NODE":96.7911,"ARG_OF_PERICENTER":197.9521,"MEAN_ANOMALY":256.3182,"EPHEMERIS_TYPE":0,"CLASSIFICATION_TYPE":"U","NORAD_CAT_ID":43873,"ELEMENT_SET_NO":999,"REV_AT_EPOCH":5273,"BSTAR":0,"MEAN_MOTION_DOT":2.2e-07,"MEAN_MOTION_DDOT":0},{"OBJECT_NAME":"GPS BIII-2  (PRN 18)","OBJECT_ID":"2019-056A","EPOCH":"2026-02-21T05:17:28.684896","MEAN_MOTION":2.00567829,"ECCENTRICITY":0.00579534,"INCLINATION":55.6903,"RA_OF_ASC_NODE":335.7549,"ARG_OF_PERICENTER":198.3869,"MEAN_ANOMALY":333.328,"EPHEMERIS_TYPE":0,"CLASSIFICATION_TYPE":"U","NORAD_CAT_ID":44506,"ELEMENT_SET_NO":999,"REV_AT_EPOCH":4774,"BSTAR":0,"MEAN_MOTION_DOT":-7.1e-07,"MEAN_MOTION_DDOT":0},{"OBJECT_NAME":"GPS BIII-3  (PRN 23)","OBJECT_ID":"2020-041A","EPOCH":"2026-02-20T06:48:03.826368","MEAN_MOTION":2.00560623,"ECCENTRICITY":0.00612663,"INCLINATION":56.5974,"RA_OF_ASC_NODE":33.48,"ARG_OF_PERICENTER":205.0655,"MEAN_ANOMALY":312.5058,"EPHEMERIS_TYPE":0,"CLASSIFICATION_TYPE":"U","NORAD_CAT_ID":45854,"ELEMENT_SET_NO":999,"REV_AT_EPOCH":4169,"BSTAR":0,"MEAN_MOTION_DOT":-3.9e-07,"MEAN_MOTION_DDOT":0},{"OBJECT_NAME":"GPS BIII-4  (PRN 14)","OBJECT_ID":"2020-078A","EPOCH":"2026-02-20T07:42:43.641216","MEAN_MOTION":2.0056552,"ECCENTRICITY":0.0067642,"INCLINATION":54.0047,"RA_OF_ASC_NODE":215.5157,"ARG_OF_PERICENTER":203.947,"MEAN_ANOMALY":313.9325,"EPHEMERIS_TYPE":0,"CLASSIFICATION_TYPE":"U","NORAD_CAT_ID":46826,"ELEMENT_SET_NO":999,"REV_AT_EPOCH":3916,"BSTAR":0,"MEAN_MOTION_DOT":6.5e-07,"MEAN_MOTION_DDOT":0},{"OBJECT_NAME":"GPS BIII-5  (PRN 11)","OBJECT_ID":"2021-054A","EPOCH":"2026-02-19T20:39:03.370752","MEAN_MOTION":2.00576094,"ECCENTRICITY":0.00240295,"INCLINATION":55.2271,"RA_OF_ASC_NODE":337.1793,"ARG_OF_PERICENTER":232.3791,"MEAN_ANOMALY":136.5879,"EPHEMERIS_TYPE":0,"CLASSIFICATION_TYPE":"U","NORAD_CAT_ID":48859,"ELEMENT_SET_NO":999,"REV_AT_EPOCH":3440,"BSTAR":0,"MEAN_MOTION_DOT":-7e-07,"MEAN_MOTION_DDOT":0},{"OBJECT_NAME":"GPS BIII-6  (PRN 28)","OBJECT_ID":"2023-009A","EPOCH":"2026-02-20T06:44:38.812992","MEAN_MOTION":2.00550057,"ECCENTRICITY":0.00042344,"INCLINATION":55.1088,"RA_OF_ASC_NODE":153.1145,"ARG_OF_PERICENTER":338.6378,"MEAN_ANOMALY":14.2976,"EPHEMERIS_TYPE":0,"CLASSIFICATION_TYPE":"U","NORAD_CAT_ID":55268,"ELEMENT_SET_NO":999,"REV_AT_EPOCH":2289,"BSTAR":0,"MEAN_MOTION_DOT":3.4e-07,"MEAN_MOTION_DDOT":0},{"OBJECT_NAME":"GPS BIII-7  (PRN 01)","OBJECT_ID":"2024-242A","EPOCH":"2026-02-19T10:26:37.643424","MEAN_MOTION":2.00569238,"ECCENTRICITY":0.00152958,"INCLINATION":54.8976,"RA_OF_ASC_NODE":338.9584,"ARG_OF_PERICENTER":354.2872,"MEAN_ANOMALY":189.0355,"EPHEMERIS_TYPE":0,"CLASSIFICATION_TYPE":"U","NORAD_CAT_ID":62339,"ELEMENT_SET_NO":999,"REV_AT_EPOCH":889,"BSTAR":0,"MEAN_MOTION_DOT":-7.1e-07,"MEAN_MOTION_DDOT":0},{"OBJECT_NAME":"GPS BIII-8  (PRN 21)","OBJECT_ID":"2025-116A","EPOCH":"2026-02-16T04:25:24.427200","MEAN_MOTION":2.00554245,"ECCENTRICITY":0.00079755,"INCLINATION":55.1552,"RA_OF_ASC_NODE":36.0004,"ARG_OF_PERICENTER":323.0614,"MEAN_ANOMALY":219.5083,"EPHEMERIS_TYPE":0,"CLASSIFICATION_TYPE":"U","NORAD_CAT_ID":64202,"ELEMENT_SET_NO":999,"REV_AT_EPOCH":544,"BSTAR":0,"MEAN_MOTION_DOT":-3.6e-07,"MEAN_MOTION_DDOT":0},{"OBJECT_NAME":"GPS BIII-9  (PRN 20)","OBJECT_ID":"2026-017A","EPOCH":"2026-02-17T12:56:41.465184","MEAN_MOTION":2.00561228,"ECCENTRICITY":9.46e-05,"INCLINATION":55.0081,"RA_OF_ASC_NODE":93.5564,"ARG_OF_PERICENTER":45.2724,"MEAN_ANOMALY":314.821,"EPHEMERIS_TYPE":0,"CLASSIFICATION_TYPE":"U","NORAD_CAT_ID":67588,"ELEMENT_SET_NO":999,"REV_AT_EPOCH":42921,"BSTAR":0,"MEAN_MOTION_DOT":2.8e-07,"MEAN_MOTION_DDOT":0}]